[
    {
        "Altitude(m)": 569581.6337845842,
        "Argument of Periapsis(deg)": 0.026491964442854003,
        "Eccentricity": 0.0,
        "Inclination(deg)": 53.0,
        "Latitude(deg)": -47.444274627572085,
        "Longitude(deg)": -127.89724149784712,
        "Mean Anomaly(deg)": 293.0936714703103,
        "RAAN(deg)": 29.960573474112064,
        "Satellite Name": "Starlink Shell 1 147",
        "Satellite Number": 147,
        "Semi-Major Axis(m)": 6931778.249405717,
        "Time(s)": 760
    },
    {
        "Altitude(m)": 569463.2169582137,
        "Argument of Periapsis(deg)": 0.02684054292236524,
        "Eccentricity": 0.0,
        "Inclination(deg)": 53.0,
        "Latitude(deg)": -47.15273128651461,
        "Longitude(deg)": -127.12529622083348,
        "Mean Anomaly(deg)": 293.7205026738671,
        "RAAN(deg)": 29.960054704034594,
        "Satellite Name": "Starlink Shell 1 147",
        "Satellite Number": 147,
        "Semi-Major Axis(m)": 6931778.249405717,
        "Time(s)": 770
    },
    {
        "Altitude(m)": 569342.2649959186,
        "Argument of Periapsis(deg)": 0.027189121401876473,
        "Eccentricity": 0.0,
        "Inclination(deg)": 53.0,
        "Latitude(deg)": -46.8554600168823,
        "Longitude(deg)": -126.36226380043611,
        "Mean Anomaly(deg)": 294.3473338774237,
        "RAAN(deg)": 29.959535933957124,
        "Satellite Name": "Starlink Shell 1 147",
        "Satellite Number": 147,
        "Semi-Major Axis(m)": 6931778.249405717,
        "Time(s)": 780
    },
    {
        "Altitude(m)": 569218.8257233539,
        "Argument of Periapsis(deg)": 0.02753769988138771,
        "Eccentricity": 0.0,
        "Inclination(deg)": 53.0,
        "Latitude(deg)": -46.55258067255885,
        "Longitude(deg)": -125.60812197815424,
        "Mean Anomaly(deg)": 294.97416508098047,
        "RAAN(deg)": 29.959017163879647,
        "Satellite Name": "Starlink Shell 1 147",
        "Satellite Number": 147,
        "Semi-Major Axis(m)": 6931778.249405717,
        "Time(s)": 790
    },
    {
        "Altitude(m)": 569092.9479235891,
        "Argument of Periapsis(deg)": 0.02788627836089895,
        "Eccentricity": 0.0,
        "Inclination(deg)": 53.0,
        "Latitude(deg)": -46.24421207384702,
        "Longitude(deg)": -124.86283994039015,
        "Mean Anomaly(deg)": 295.6009962845372,
        "RAAN(deg)": 29.958498393802177,
        "Satellite Name": "Starlink Shell 1 147",
        "Satellite Number": 147,
        "Semi-Major Axis(m)": 6931778.249405717,
        "Time(s)": 800
    },
    {
        "Altitude(m)": 568964.681315743,
        "Argument of Periapsis(deg)": 0.02823485684041019,
        "Eccentricity": 0.0,
        "Inclination(deg)": 53.0,
        "Latitude(deg)": -45.930471896303494,
        "Longitude(deg)": -124.12637835392242,
        "Mean Anomaly(deg)": 296.22782748809396,
        "RAAN(deg)": 29.957979623724707,
        "Satellite Name": "Starlink Shell 1 147",
        "Satellite Number": 147,
        "Semi-Major Axis(m)": 6931778.249405717,
        "Time(s)": 810
    },
    {
        "Altitude(m)": 568834.0765331838,
        "Argument of Periapsis(deg)": 0.028583435319921423,
        "Eccentricity": 0.0,
        "Inclination(deg)": 53.0,
        "Latitude(deg)": -45.61147656950891,
        "Longitude(deg)": -123.39868939344674,
        "Mean Anomaly(deg)": 296.8546586916506,
        "RAAN(deg)": 29.957460853647227,
        "Satellite Name": "Starlink Shell 1 147",
        "Satellite Number": 147,
        "Semi-Major Axis(m)": 6931778.249405717,
        "Time(s)": 820
    },
    {
        "Altitude(m)": 568701.1851013546,
        "Argument of Periapsis(deg)": 0.028932013799432665,
        "Eccentricity": 0.0,
        "Inclination(deg)": 53.0,
        "Latitude(deg)": -45.28734118544134,
        "Longitude(deg)": -122.67971827201244,
        "Mean Anomaly(deg)": 297.48148989520735,
        "RAAN(deg)": 29.956942083569754,
        "Satellite Name": "Starlink Shell 1 147",
        "Satellite Number": 147,
        "Semi-Major Axis(m)": 6931778.249405717,
        "Time(s)": 830
    },
    {
        "Altitude(m)": 568566.059415139,
        "Argument of Periapsis(deg)": 0.029280592278943897,
        "Eccentricity": 0.0,
        "Inclination(deg)": 53.0,
        "Latitude(deg)": -44.95817941609798,
        "Longitude(deg)": -121.9694032468195,
        "Mean Anomaly(deg)": 298.108321098764,
        "RAAN(deg)": 29.956423313492284,
        "Satellite Name": "Starlink Shell 1 147",
        "Satellite Number": 147,
        "Semi-Major Axis(m)": 6931778.249405717,
        "Time(s)": 840
    },
    {
        "Altitude(m)": 568428.752715878,
        "Argument of Periapsis(deg)": 0.029629170758455132,
        "Eccentricity": 0.0,
        "Inclination(deg)": 53.0,
        "Latitude(deg)": -44.624103439984424,
        "Longitude(deg)": -121.26767561171756,
        "Mean Anomaly(deg)": 298.7351523023207,
        "RAAN(deg)": 29.95590454341481,
        "Satellite Name": "Starlink Shell 1 147",
        "Satellite Number": 147,
        "Semi-Major Axis(m)": 6931778.249405717,
        "Time(s)": 850
    },
    {
        "Altitude(m)": 568289.3190679715,
        "Argument of Periapsis(deg)": 0.02997774923796637,
        "Eccentricity": 0.0,
        "Inclination(deg)": 53.0,
        "Latitude(deg)": -44.28522387707574,
        "Longitude(deg)": -120.57446135608737,
        "Mean Anomaly(deg)": 299.3619835058775,
        "RAAN(deg)": 29.955385773337337,
        "Satellite Name": "Starlink Shell 1 147",
        "Satellite Number": 147,
        "Semi-Major Axis(m)": 6931778.249405717,
        "Time(s)": 860
    },
    {
        "Altitude(m)": 568147.8133351268,
        "Argument of Periapsis(deg)": 0.030326327717477602,
        "Eccentricity": 0.0,
        "Inclination(deg)": 53.0,
        "Latitude(deg)": -43.94164973184628,
        "Longitude(deg)": -119.88968028659599,
        "Mean Anomaly(deg)": 299.98881470943417,
        "RAAN(deg)": 29.954867003259864,
        "Satellite Name": "Starlink Shell 1 147",
        "Satellite Number": 147,
        "Semi-Major Axis(m)": 6931778.249405717,
        "Time(s)": 870
    },
    {
        "Altitude(m)": 568004.2911562087,
        "Argument of Periapsis(deg)": 0.030674906196988847,
        "Eccentricity": 0.0,
        "Inclination(deg)": 53.0,
        "Latitude(deg)": -43.59348834395072,
        "Longitude(deg)": -119.21324765388398,
        "Mean Anomaly(deg)": 300.61564591299094,
        "RAAN(deg)": 29.95434823318239,
        "Satellite Name": "Starlink Shell 1 147",
        "Satellite Number": 147,
        "Semi-Major Axis(m)": 6931778.249405717,
        "Time(s)": 880
    },
    {
        "Altitude(m)": 567858.808920759,
        "Argument of Periapsis(deg)": 0.031023484676500086,
        "Eccentricity": 0.0,
        "Inclination(deg)": 53.0,
        "Latitude(deg)": -43.24084534614354,
        "Longitude(deg)": -118.54507408107693,
        "Mean Anomaly(deg)": 301.2424771165476,
        "RAAN(deg)": 29.95382946310492,
        "Satellite Name": "Starlink Shell 1 147",
        "Satellite Number": 147,
        "Semi-Major Axis(m)": 6931778.249405717,
        "Time(s)": 890
    },
    {
        "Altitude(m)": 567711.4237441776,
        "Argument of Periapsis(deg)": 0.03137206315601132,
        "Eccentricity": 0.0,
        "Inclination(deg)": 53.0,
        "Latitude(deg)": -42.88382462901896,
        "Longitude(deg)": -117.88506547459843,
        "Mean Anomaly(deg)": 301.8693083201044,
        "RAAN(deg)": 29.953310693027447,
        "Satellite Name": "Starlink Shell 1 147",
        "Satellite Number": 147,
        "Semi-Major Axis(m)": 6931778.249405717,
        "Time(s)": 900
    },
    {
        "Altitude(m)": 567562.1934425271,
        "Argument of Periapsis(deg)": 0.03172064163552255,
        "Eccentricity": 0.0,
        "Inclination(deg)": 53.0,
        "Latitude(deg)": -42.52252831215651,
        "Longitude(deg)": -117.23312442982444,
        "Mean Anomaly(deg)": 302.4961395236611,
        "RAAN(deg)": 29.952791922949974,
        "Satellite Name": "Starlink Shell 1 147",
        "Satellite Number": 147,
        "Semi-Major Axis(m)": 6931778.249405717,
        "Time(s)": 910
    },
    {
        "Altitude(m)": 567411.1765070448,
        "Argument of Periapsis(deg)": 0.0320692201150338,
        "Eccentricity": 0.0,
        "Inclination(deg)": 53.0,
        "Latitude(deg)": -42.157056721267224,
        "Longitude(deg)": -116.58915010563469,
        "Mean Anomaly(deg)": 303.12297072721776,
        "RAAN(deg)": 29.952273152872504,
        "Satellite Name": "Starlink Shell 1 147",
        "Satellite Number": 147,
        "Semi-Major Axis(m)": 6931778.249405717,
        "Time(s)": 920
    },
    {
        "Altitude(m)": 567258.4320783424,
        "Argument of Periapsis(deg)": 0.032417798594545036,
        "Eccentricity": 0.0,
        "Inclination(deg)": 53.0,
        "Latitude(deg)": -41.78750837093977,
        "Longitude(deg)": -115.95303808067682,
        "Mean Anomaly(deg)": 303.7498019307745,
        "RAAN(deg)": 29.951754382795023,
        "Satellite Name": "Starlink Shell 1 147",
        "Satellite Number": 147,
        "Semi-Major Axis(m)": 6931778.249405717,
        "Time(s)": 930
    },
    {
        "Altitude(m)": 567104.0199202789,
        "Argument of Periapsis(deg)": 0.03276637707405627,
        "Eccentricity": 0.0,
        "Inclination(deg)": 53.0,
        "Latitude(deg)": -41.413979952594694,
        "Longitude(deg)": -115.32468170427157,
        "Mean Anomaly(deg)": 304.3766331343312,
        "RAAN(deg)": 29.951235612717554,
        "Satellite Name": "Starlink Shell 1 147",
        "Satellite Number": 147,
        "Semi-Major Axis(m)": 6931778.249405717,
        "Time(s)": 940
    }
]